{"type": "FeatureCollection", "features": [ {"type": "Feature", "properties": {"norad_id": 30530, "name": "FENGYUN 1C DEB", "group": "fengyun-1c-debris", "lat": 3.089314305513119, "lon": -143.1351492193234, "alt_km": 751.4575198023813, "timestamp": "2025-12-24T07:45:06.476585+00:00", "meta": {"OBJECT_NAME": "FENGYUN 1C DEB", "OBJECT_ID": "1999-025AJU", "EPOCH": "2025-12-23T19:31:27.547392", "MEAN_MOTION": 14.36798905, "ECCENTRICITY": 0.01004354, "INCLINATION": 98.395, "RA_OF_ASC_NODE": 35.9113, "ARG_OF_PERICENTER": 104.0436, "MEAN_ANOMALY": 317.8674, "EPHEMERIS_TYPE": 0, "CLASSIFICATION_TYPE": "U", "NORAD_CAT_ID": 30530, "ELEMENT_SET_NO": 999, "REV_AT_EPOCH": 98944, "BSTAR": 0.0002061582, "MEAN_MOTION_DOT": 6.01e-06, "MEAN_MOTION_DDOT": 0}, "tle": {"line1": "1 30530U 99025AJU 25357.81351328  .00000601  00000+0  20616-3 0  9993", "line2": "2 30530  98.3950  35.9113 0100435 104.0436 317.8674 14.36798905989442"}}, "geometry": {"type": "Point", "coordinates": [-143.1351492193234, 3.089314305513119]}}, {"type": "Feature", "properties": {"norad_id": 30531, "name": "FENGYUN 1C DEB", "group": "fengyun-1c-debris", "lat": -11.683613213812825, "lon": 7.497160469901728, "alt_km": 672.0202344941081, "timestamp": "2025-12-24T07:45:06.476594+00:00", "meta": {"OBJECT_NAME": "FENGYUN 1C DEB", "OBJECT_ID": "1999-025AJV", "EPOCH": "2025-12-23T19:22:59.528352", "MEAN_MOTION": 14.62294658, "ECCENTRICITY": 0.00265353, "INCLINATION": 102.3101, "RA_OF_ASC_NODE": 189.3206, "ARG_OF_PERICENTER": 175.9044, "MEAN_ANOMALY": 184.2364, "EPHEMERIS_TYPE": 0, "CLASSIFICATION_TYPE": "U", "NORAD_CAT_ID": 30531, "ELEMENT_SET_NO": 999, "REV_AT_EPOCH": 97857, "BSTAR": 0.0043976928, "MEAN_MOTION_DOT": 0.00022301, "MEAN_MOTION_DDOT": 0}, "tle": {"line1": "1 30531U 99025AJV 25357.80763343  .00022301  00000+0  43977-2 0  9992", "line2": "2 30531 102.3101 189.3206 0026535 175.9044 184.2364 14.62294658978573"}}, "geometry": {"type": "Point", "coordinates": [7.497160469901728, -11.683613213812825]}}, {"type": "Feature", "properties": {"norad_id": 30532, "name": "FENGYUN 1C DEB", "group": "fengyun-1c-debris", "lat": -40.71375385980202, "lon": -143.20821685749692, "alt_km": 458.50164050697913, "timestamp": "2025-12-24T07:45:06.476604+00:00", "meta": {"OBJECT_NAME": "FENGYUN 1C DEB", "OBJECT_ID": "1999-025AJW", "EPOCH": "2025-12-23T19:49:31.539072", "MEAN_MOTION": 15.32972756, "ECCENTRICITY": 0.00202771, "INCLINATION": 96.9583, "RA_OF_ASC_NODE": 42.357, "ARG_OF_PERICENTER": 220.3508, "MEAN_ANOMALY": 139.6232, "EPHEMERIS_TYPE": 0, "CLASSIFICATION_TYPE": "U", "NORAD_CAT_ID": 30532, "ELEMENT_SET_NO": 999, "REV_AT_EPOCH": 97857, "BSTAR": 0.012898679, "MEAN_MOTION_DOT": 0.00436753, "MEAN_MOTION_DDOT": 0}, "tle": {"line1": "1 30532U 99025AJW 25357.82605948  .00436753  00000+0  12899-1 0  9999", "line2": "2 30532  96.9583  42.3570 0020277 220.3508 139.6232 15.32972756978573"}}, "geometry": {"type": "Point", "coordinates": [-143.20821685749692, -40.71375385980202]}}, {"type": "Feature", "properties": {"norad_id": 30533, "name": "FENGYUN 1C DEB", "group": "fengyun-1c-debris", "lat": -5.635772146197498, "lon": -53.10575726190503, "alt_km": 696.9470653032622, "timestamp": "2025-12-24T07:45:06.476616+00:00", "meta": {"OBJECT_NAME": "FENGYUN 1C DEB", "OBJECT_ID": "1999-025AJX", "EPOCH": "2025-12-23T21:33:41.594976", "MEAN_MOTION": 14.54083341, "ECCENTRICITY": 0.00811925, "INCLINATION": 98.8341, "RA_OF_ASC_NODE": 127.3257, "ARG_OF_PERICENTER": 115.7251, "MEAN_ANOMALY": 7.6397, "EPHEMERIS_TYPE": 0, "CLASSIFICATION_TYPE": "U", "NORAD_CAT_ID": 30533, "ELEMENT_SET_NO": 999, "REV_AT_EPOCH": 97983, "BSTAR": 0.0028646377, "MEAN_MOTION_DOT": 0.00012607, "MEAN_MOTION_DDOT": 0}, "tle": {"line1": "1 30533U 99025AJX 25357.89839809  .00012607  00000+0  28646-2 0  9998", "line2": "2 30533  98.8341 127.3257 0081192 115.7251   7.6397 14.54083341979830"}}, "geometry": {"type": "Point", "coordinates": [-53.10575726190503, -5.635772146197498]}}, {"type": "Feature", "properties": {"norad_id": 30539, "name": "FENGYUN 1C DEB", "group": "fengyun-1c-debris", "lat": -26.474747935457593, "lon": -16.02716471339955, "alt_km": 716.8444639870077, "timestamp": "2025-12-24T07:45:06.476627+00:00", "meta": {"OBJECT_NAME": "FENGYUN 1C DEB", "OBJECT_ID": "1999-025AKD", "EPOCH": "2025-12-23T10:25:35.444928", "MEAN_MOTION": 14.55461827, "ECCENTRICITY": 0.01152946, "INCLINATION": 98.8814, "RA_OF_ASC_NODE": 338.5619, "ARG_OF_PERICENTER": 242.9986, "MEAN_ANOMALY": 115.9401, "EPHEMERIS_TYPE": 0, "CLASSIFICATION_TYPE": "U", "NORAD_CAT_ID": 30539, "ELEMENT_SET_NO": 999, "REV_AT_EPOCH": 99521, "BSTAR": 0.00058087943, "MEAN_MOTION_DOT": 2.705e-05, "MEAN_MOTION_DDOT": 0}, "tle": {"line1": "1 30539U 99025AKD 25357.43443802  .00002705  00000+0  58088-3 0  9990", "line2": "2 30539  98.8814 338.5619 0115294 242.9986 115.9401 14.55461827995217"}}, "geometry": {"type": "Point", "coordinates": [-16.02716471339955, -26.474747935457593]}}, {"type": "Feature", "properties": {"norad_id": 30540, "name": "FENGYUN 1C DEB", "group": "fengyun-1c-debris", "lat": -61.01452436610698, "lon": 123.33001828713734, "alt_km": 790.5233226396986, "timestamp": "2025-12-24T07:45:06.476639+00:00", "meta": {"OBJECT_NAME": "FENGYUN 1C DEB", "OBJECT_ID": "1999-025AKE", "EPOCH": "2025-12-23T19:21:35.449056", "MEAN_MOTION": 14.32377138, "ECCENTRICITY": 0.0050605, "INCLINATION": 98.8786, "RA_OF_ASC_NODE": 106.412, "ARG_OF_PERICENTER": 28.9622, "MEAN_ANOMALY": 128.3944, "EPHEMERIS_TYPE": 0, "CLASSIFICATION_TYPE": "U", "NORAD_CAT_ID": 30540, "ELEMENT_SET_NO": 999, "REV_AT_EPOCH": 97444, "BSTAR": 0.0017688894, "MEAN_MOTION_DOT": 4.807e-05, "MEAN_MOTION_DDOT": 0}, "tle": {"line1": "1 30540U 99025AKE 25357.80666029  .00004807  00000+0  17689-2 0  9997", "line2": "2 30540  98.8786 106.4120 0050605  28.9622 128.3944 14.32377138974447"}}, "geometry": {"type": "Point", "coordinates": [123.33001828713734, -61.01452436610698]}}, {"type": "Feature", "properties": {"norad_id": 30541, "name": "FENGYUN 1C DEB", "group": "fengyun-1c-debris", "lat": -53.678268683616636, "lon": 56.73017945820472, "alt_km": 825.5823124651597, "timestamp": "2025-12-24T07:45:06.476649+00:00", "meta": {"OBJECT_NAME": "FENGYUN 1C DEB", "OBJECT_ID": "1999-025AKF", "EPOCH": "2025-12-23T21:52:59.968416", "MEAN_MOTION": 14.23104306, "ECCENTRICITY": 0.00176102, "INCLINATION": 98.693, "RA_OF_ASC_NODE": 44.3126, "ARG_OF_PERICENTER": 53.9876, "MEAN_ANOMALY": 306.2931, "EPHEMERIS_TYPE": 0, "CLASSIFICATION_TYPE": "U", "NORAD_CAT_ID": 30541, "ELEMENT_SET_NO": 999, "REV_AT_EPOCH": 97486, "BSTAR": 0.0011370081, "MEAN_MOTION_DOT": 2.527e-05, "MEAN_MOTION_DDOT": 0}, "tle": {"line1": "1 30541U 99025AKF 25357.91180519  .00002527  00000+0  11370-2 0  9993", "line2": "2 30541  98.6930  44.3126 0017610  53.9876 306.2931 14.23104306974865"}}, "geometry": {"type": "Point", "coordinates": [56.73017945820472, -53.678268683616636]}}, {"type": "Feature", "properties": {"norad_id": 30542, "name": "FENGYUN 1C DEB", "group": "fengyun-1c-debris", "lat": -41.437538092157915, "lon": -161.10493589343258, "alt_km": 872.4123603356502, "timestamp": "2025-12-24T07:45:06.476659+00:00", "meta": {"OBJECT_NAME": "FENGYUN 1C DEB", "OBJECT_ID": "1999-025AKG", "EPOCH": "2025-12-23T01:59:08.805120", "MEAN_MOTION": 14.06979504, "ECCENTRICITY": 0.00271453, "INCLINATION": 98.7859, "RA_OF_ASC_NODE": 25.537, "ARG_OF_PERICENTER": 304.3656, "MEAN_ANOMALY": 119.3486, "EPHEMERIS_TYPE": 0, "CLASSIFICATION_TYPE": "U", "NORAD_CAT_ID": 30542, "ELEMENT_SET_NO": 999, "REV_AT_EPOCH": 97064, "BSTAR": 0.00017401497, "MEAN_MOTION_DOT": 2.48e-06, "MEAN_MOTION_DDOT": 0}, "tle": {"line1": "1 30542U 99025AKG 25357.08274080  .00000248  00000+0  17401-3 0  9999", "line2": "2 30542  98.7859  25.5370 0027145 304.3656 119.3486 14.06979504970643"}}, "geometry": {"type": "Point", "coordinates": [-161.10493589343258, -41.437538092157915]}}, {"type": "Feature", "properties": {"norad_id": 30543, "name": "FENGYUN 1C DEB", "group": "fengyun-1c-debris", "lat": 15.904153196541309, "lon": -169.90012074530827, "alt_km": 931.3364812284008, "timestamp": "2025-12-24T07:45:06.476669+00:00", "meta": {"OBJECT_NAME": "FENGYUN 1C DEB", "OBJECT_ID": "1999-025AKH", "EPOCH": "2025-12-23T07:07:10.850304", "MEAN_MOTION": 14.03750375, "ECCENTRICITY": 0.00721697, "INCLINATION": 98.8329, "RA_OF_ASC_NODE": 6.5634, "ARG_OF_PERICENTER": 4.3282, "MEAN_ANOMALY": 15.4756, "EPHEMERIS_TYPE": 0, "CLASSIFICATION_TYPE": "U", "NORAD_CAT_ID": 30543, "ELEMENT_SET_NO": 999, "REV_AT_EPOCH": 96653, "BSTAR": 0.00014027447, "MEAN_MOTION_DOT": 1.83e-06, "MEAN_MOTION_DDOT": 0}, "tle": {"line1": "1 30543U 99025AKH 25357.29665336  .00000183  00000+0  14027-3 0  9990", "line2": "2 30543  98.8329   6.5634 0072169   4.3282  15.4756 14.03750375966536"}}, "geometry": {"type": "Point", "coordinates": [-169.90012074530827, 15.904153196541309]}}, {"type": "Feature", "properties": {"norad_id": 30545, "name": "FENGYUN 1C DEB", "group": "fengyun-1c-debris", "lat": -67.3844194684138, "lon": -128.72027747332282, "alt_km": 958.6483834695409, "timestamp": "2025-12-24T07:45:06.476712+00:00", "meta": {"OBJECT_NAME": "FENGYUN 1C DEB", "OBJECT_ID": "1999-025AKK", "EPOCH": "2025-12-16T01:55:01.765920", "MEAN_MOTION": 13.20785031, "ECCENTRICITY": 0.04726799, "INCLINATION": 98.9986, "RA_OF_ASC_NODE": 201.8152, "ARG_OF_PERICENTER": 2.8282, "MEAN_ANOMALY": 357.5348, "EPHEMERIS_TYPE": 0, "CLASSIFICATION_TYPE": "U", "NORAD_CAT_ID": 30545, "ELEMENT_SET_NO": 999, "REV_AT_EPOCH": 90974, "BSTAR": 0.00057440201, "MEAN_MOTION_DOT": 3.84e-06, "MEAN_MOTION_DDOT": 0}, "tle": {"line1": "1 30545U 99025AKK 25350.07988155  .00000384  00000+0  57440-3 0  9997", "line2": "2 30545  98.9986 201.8152 0472679   2.8282 357.5348 13.20785031909748"}}, "geometry": {"type": "Point", "coordinates": [-128.72027747332282, -67.3844194684138]}}]}